NORAD_CAT_ID,OBJECT_NAME,OBJECT_TYPE,EPOCH,MEAN_MOTION,ECCENTRICITY,INCLINATION,RA_OF_ASC_NODE,ARG_OF_PERICENTER,MEAN_ANOMALY,BSTAR,MEAN_MOTION_DOT,MEAN_MOTION_DDOT,TLE_LINE0,TLE_LINE1,TLE_LINE2,SEMIMAJOR_AXIS,PERIOD,APOGEE,PERIGEE,DECAYED
52846.0,STARLINK-4212,PAYLOAD,2022-11-01 14:00:01,15.08839545,0.0001821999999999,53.2189,129.3524,44.7149,182.4466,-0.0003143999999999,-5.288e-05,0.0,0 STARLINK-4212,1 52846U 22062S   22305.58334491 -.00005288  00000-0 -31440-3 0  9996,2 52846  53.2189 129.3524 0001822  44.7149 182.4466 15.08839545  1306,6917.882,95.438,541.007,538.486,0.0
52846.0,STARLINK-4212,PAYLOAD,2022-11-01 22:00:00,15.08815935,0.0002019,53.2187,127.8576,39.1892,199.5704,0.0025326,0.00040222,0.0,0 STARLINK-4212,1 52846U 22062S   22305.91667824  .00040222  00000-0  25326-2 0  9992,2 52846  53.2187 127.8576 0002019  39.1892 199.5704 15.08815935  1307,6917.954000000002,95.439,541.216,538.422,0.0
52846.0,STARLINK-4212,PAYLOAD,2022-11-02 06:00:00,15.08846908,0.000179,53.2186,126.3598,40.608,209.7368,-0.0031696,-0.0005038999999999,0.0,0 STARLINK-4212,1 52846U 22062S   22306.25001157 -.00050390  00000-0 -31696-2 0  9997,2 52846  53.2186 126.3598 0001790  40.6080 209.7368 15.08846908 21581,6917.859,95.437,540.9630000000002,538.486,0.0
52846.0,STARLINK-4212,PAYLOAD,2022-11-02 14:00:01,15.08830058,0.0001721999999999,53.2184,124.8616,43.3146,218.6081,-0.00064652,-0.0001056,0.0,0 STARLINK-4212,1 52846U 22062S   22306.58334491 -.00010560  00000-0 -64652-3 0  9997,2 52846  53.2184 124.8616 0001722  43.3146 218.6081 15.08830058  1309,6917.911,95.438,540.967,538.585,0.0
52846.0,STARLINK-4212,PAYLOAD,2022-11-02 19:12:12,15.08827368,0.0001924,53.2194,123.89,44.2097,315.9048,-5.8469e-05,-1.218e-05,0.0,0 STARLINK-4212,1 52846U 22062S   22306.80014068 -.00001218  00000-0 -58469-4 0  9997,2 52846  53.2194 123.8900 0001924  44.2097 315.9048 15.08827368 21669,6917.919,95.438,541.115,538.453,0.0
52846.0,STARLINK-4212,PAYLOAD,2022-11-02 20:47:35,15.08826839,0.0001908,53.2194,123.5928,44.1498,315.9647,-6.1807e-05,-1.271e-05,0.0,0 STARLINK-4212,1 52846U 22062S   22306.86638164 -.00001271  00000-0 -61807-4 0  9991,2 52846  53.2194 123.5928 0001908  44.1498 315.9647 15.08826839 21186,6917.920999999999,95.438,541.106,538.466,0.0
52846.0,STARLINK-4212,PAYLOAD,2022-11-03 11:06:03,15.08832265,0.0001888,53.2197,120.9163,43.3109,316.8032,-1.8108e-05,-5.76e-06,0.0,0 STARLINK-4212,1 52846U 22062S   22307.46254074 -.00000576  00000-0 -18108-4 0  9995,2 52846  53.2197 120.9163 0001888  43.3109 316.8032 15.08832265 21276,6917.904,95.438,541.075,538.4630000000002,0.0
52846.0,STARLINK-4212,PAYLOAD,2022-11-03 20:38:22,15.08837223,0.0001871,53.2196,119.1324,42.5621,317.5516,6.5141e-05,7.49e-06,0.0,0 STARLINK-4212,1 52846U 22062S   22307.85997726  .00000749  00000-0  65141-4 0  9995,2 52846  53.2196 119.1324 0001871  42.5621 317.5516 15.08837223 21337,6917.889,95.438,541.048,538.46,0.0
52846.0,STARLINK-4212,PAYLOAD,2022-11-03 22:13:44,15.08855793,0.0001728,53.2198,118.8344,43.2154,316.8974,-0.000137,-2.469e-05,0.0,0 STARLINK-4212,1 52846U 22062S   22307.92621309 -.00002469  00000-0 -13700-3 0  9990,2 52846  53.2198 118.8344 0001728  43.2154 316.8974 15.08855793 21834,6917.831999999999,95.437,540.893,538.502,0.0
52846.0,STARLINK-4212,PAYLOAD,2022-11-04 12:32:12,15.08847081,0.0001841,53.2197,116.1584,41.5715,318.5417,0.00014606,2.038e-05,0.0,0 STARLINK-4212,1 52846U 22062S   22308.52236912  .00002038  00000-0  14606-3 0  9995,2 52846  53.2197 116.1584 0001841  41.5715 318.5417 15.08847081 21438,6917.859,95.437,540.997,538.45,0.0
52846.0,STARLINK-4212,PAYLOAD,2022-11-04 20:29:08,15.08840769,0.0001871,53.2194,114.6717,41.3377,318.7756,0.00017033,2.424e-05,0.0,0 STARLINK-4212,1 52846U 22062S   22308.85357215  .00002424  00000-0  17033-3 0  9997,2 52846  53.2194 114.6717 0001871  41.3377 318.7756 15.08840769 21480,6917.878000000002,95.438,541.0369999999998,538.4490000000002,0.0
52846.0,STARLINK-4212,PAYLOAD,2022-11-04 23:39:55,15.08839301,0.0001885,53.2196,114.0772,41.6434,318.4701,0.00015496,2.179e-05,0.0,0 STARLINK-4212,1 52846U 22062S   22308.98605405  .00002179  00000-0  15496-3 0  9996,2 52846  53.2196 114.0772 0001885  41.6434 318.4701 15.08839301 21992,6917.8830000000025,95.438,541.052,538.444,0.0
52846.0,STARLINK-4212,PAYLOAD,2022-11-05 04:26:04,15.08840545,0.0001893,53.2196,113.1853,41.5392,318.5744,0.00013051,1.7899999999999998e-05,0.0,0 STARLINK-4212,1 52846U 22062S   22309.18477419  .00001790  00000-0  13051-3 0  9994,2 52846  53.2196 113.1853 0001893  41.5392 318.5744 15.08840545 21533,6917.879,95.438,541.053,538.434,0.0
52846.0,STARLINK-4212,PAYLOAD,2022-11-05 17:09:10,15.08837576,0.0002126,53.2194,110.807,44.5858,315.5305,2.0408e-05,3.7e-07,0.0,0 STARLINK-4212,1 52846U 22062S   22309.71470059  .00000037  00000-0  20408-4 0  9994,2 52846  53.2194 110.8070 0002126  44.5858 315.5305 15.08837576 22100,6917.888000000001,95.438,541.224,538.2819999999998,0.0
52846.0,STARLINK-4212,PAYLOAD,2022-11-06 10:38:24,15.08840651,0.0002031,53.2198,107.536,44.6364,315.4791,0.00011351,1.519e-05,0.0,0 STARLINK-4212,1 52846U 22062S   22310.44333480  .00001519  00000-0  11351-3 0  9994,2 52846  53.2198 107.5360 0002031  44.6364 315.4791 15.08840651 21720,6917.878000000002,95.438,541.148,538.3380000000002,0.0
52846.0,STARLINK-4212,PAYLOAD,2022-11-06 16:59:56,15.08846358,0.0002069,53.22,106.3466,45.4701,314.646,-2.1168e-05,-6.25e-06,0.0,0 STARLINK-4212,1 52846U 22062S   22310.70829328 -.00000625  00000-0 -21168-4 0  9991,2 52846  53.2200 106.3466 0002069  45.4701 314.6460 15.08846358 22256,6917.861,95.437,541.1569999999998,538.295,0.0
52846.0,STARLINK-4212,PAYLOAD,2022-11-07 20:01:30,15.0883681,0.0001896,53.2204,101.2913,38.8785,321.2343,3.0795e-06,-2.39e-06,0.0,0 STARLINK-4212,1 52846U 22062S   22311.83437924 -.00000239  00000-0  30795-5 0  9990,2 52846  53.2204 101.2913 0001896  38.8785 321.2343 15.08836810 22421,6917.89,95.438,541.067,538.444,0.0
52846.0,STARLINK-4212,PAYLOAD,2022-11-08 16:41:30,15.08844831,0.0001926,53.2212,97.4265,35.5479,324.5641,9.6015e-05,1.24e-05,0.0,0 STARLINK-4212,1 52846U 22062S   22312.69548964  .00001240  00000-0  96015-4 0  9990,2 52846  53.2212  97.4265 0001926  35.5479 324.5641 15.08844831 22557,6917.866,95.437,541.063,538.398,0.0
52846.0,STARLINK-4212,PAYLOAD,2022-11-09 14:56:54,15.08841399,0.0002031,53.2202,93.2629,41.2246,318.89,9.5923e-05,1.239e-05,0.0,0 STARLINK-4212,1 52846U 22062S   22313.62285274  .00001239  00000-0  95923-4 0  9991,2 52846  53.2202  93.2629 0002031  41.2246 318.8900 15.08841399 22200,6917.876,95.437,541.146,538.336,0.0
52846.0,STARLINK-4212,PAYLOAD,2022-11-09 18:07:40,15.08836282,0.0002169,53.2197,92.6682,40.3486,319.7667,3.823300000000001e-05,3.2e-06,0.0,0 STARLINK-4212,1 52846U 22062S   22313.75533561  .00000320  00000-0  38233-4 0  9991,2 52846  53.2197  92.6682 0002169  40.3486 319.7667 15.08836282 22714,6917.892,95.438,541.257,538.256,0.0
52846.0,STARLINK-4212,PAYLOAD,2022-11-10 02:04:37,15.0882839,0.0002176,53.2207,91.1826,40.9003,319.2152,-8.986700000000001e-05,-1.718e-05,0.0,0 STARLINK-4212,1 52846U 22062S   22314.08654818 -.00001718  00000-0 -89867-4 0  9990,2 52846  53.2207  91.1826 0002176  40.9003 319.2152 15.08828390 22769,6917.916,95.438,541.286,538.276,0.0
52846.0,STARLINK-4212,PAYLOAD,2022-11-10 13:12:19,15.08830895,0.0002166,53.2198,89.1011,44.1176,315.9988,-6.702e-05,-1.354e-05,0.0,0 STARLINK-4212,1 52846U 22062S   22314.55022775 -.00001354  00000-0 -67020-4 0  9996,2 52846  53.2198  89.1011 0002166  44.1176 315.9988 15.08830895 22344,6917.908,95.438,541.2719999999998,538.275,0.0
52846.0,STARLINK-4212,PAYLOAD,2022-11-10 16:23:05,15.08834175,0.0002197,53.2198,88.506,42.705,317.4112,-5.0335e-05,-1.089e-05,0.0,0 STARLINK-4212,1 52846U 22062S   22314.68270551 -.00001089  00000-0 -50335-4 0  9993,2 52846  53.2198  88.5060 0002197  42.7050 317.4112 15.08834175 22857,6917.898,95.438,541.283,538.243,0.0
52846.0,STARLINK-4212,PAYLOAD,2022-11-10 19:33:52,15.08824187,0.0002168,53.2197,87.9128,45.9217,314.1953,-0.00010725,-1.994e-05,0.0,0 STARLINK-4212,1 52846U 22062S   22314.81519504 -.00001994  00000-0 -10725-3 0  9995,2 52846  53.2197  87.9128 0002168  45.9217 314.1953 15.08824187 22389,6917.929,95.439,541.294,538.294,0.0
52846.0,STARLINK-4212,PAYLOAD,2022-11-11 01:55:25,15.08821697,0.0002126,53.2194,86.7229,44.4283,315.688,-5.7828e-05,-1.208e-05,0.0,0 STARLINK-4212,1 52846U 22062S   22315.08015767 -.00001208  00000-0 -57828-4 0  9991,2 52846  53.2194  86.7229 0002126  44.4283 315.6880 15.08821697 22913,6917.936,95.439,541.2719999999998,538.331,0.0
52846.0,STARLINK-4212,PAYLOAD,2022-11-11 13:03:07,15.08831822,0.0002153,53.2205,84.641,30.3803,329.7313,-4.9744e-05,-1.0800000000000003e-05,0.0,0 STARLINK-4212,1 52846U 22062S   22315.54383589 -.00001080  00000-0 -49744-4 0  9998,2 52846  53.2205  84.6410 0002153  30.3803 329.7313 15.08831822 22982,6917.905,95.438,541.26,538.281,0.0
52846.0,STARLINK-4212,PAYLOAD,2022-11-11 19:24:39,15.08843922,0.0002222,53.2202,83.45200000000001,50.1623,309.9564,-4.3348e-05,-9.78e-06,0.0,0 STARLINK-4212,1 52846U 22062S   22315.80878943 -.00000978  00000-0 -43348-4 0  9999,2 52846  53.2202  83.4520 0002222  50.1623 309.9564 15.08843922 23023,6917.868,95.437,541.271,538.196,0.0
52846.0,STARLINK-4212,PAYLOAD,2022-11-12 14:29:16,15.08851212,0.000221,53.2203,79.8837,42.9003,317.2161,0.0002805,4.18e-05,0.0,0 STARLINK-4212,1 52846U 22062S   22316.60365856  .00004180  00000-0  28050-3 0  9991,2 52846  53.2203  79.8837 0002210  42.9003 317.2161 15.08851212 23141,6917.846,95.437,541.24,538.182,0.0
52846.0,STARLINK-4212,PAYLOAD,2022-11-12 17:40:02,15.0884969,0.0002267,53.221,79.2897,37.5245,322.5906,0.00026536,3.939e-05,0.0,0 STARLINK-4212,1 52846U 22062S   22316.73614084  .00003939  00000-0  26536-3 0  9993,2 52846  53.2210  79.2897 0002267  37.5245 322.5906 15.08849690 22679,6917.851,95.437,541.284,538.1469999999998,0.0
